[{"OBJECT_NAME":"STARLINK-31761","OBJECT_ID":"2024-080Q","EPOCH":"2025-11-08T12:13:17.490144","MEAN_MOTION":15.27583744,"ECCENTRICITY":0.0001034,"INCLINATION":43.0048,"RA_OF_ASC_NODE":2.7382,"ARG_OF_PERICENTER":296.6892,"MEAN_ANOMALY":63.3854,"EPHEMERIS_TYPE":0,"CLASSIFICATION_TYPE":"U","NORAD_CAT_ID":59615,"ELEMENT_SET_NO":999,"REV_AT_EPOCH":8599,"BSTAR":0.00027324,"MEAN_MOTION_DOT":7.265e-5,"MEAN_MOTION_DDOT":0},{"OBJECT_NAME":"STARLINK-31768","OBJECT_ID":"2024-080R","EPOCH":"2025-11-07T13:28:51.867552","MEAN_MOTION":15.2758436,"ECCENTRICITY":9.161e-5,"INCLINATION":43.0027,"RA_OF_ASC_NODE":7.7229,"ARG_OF_PERICENTER":287.9634,"MEAN_ANOMALY":72.1117,"EPHEMERIS_TYPE":0,"CLASSIFICATION_TYPE":"U","NORAD_CAT_ID":59616,"ELEMENT_SET_NO":999,"REV_AT_EPOCH":8585,"BSTAR":-0.00010509916,"MEAN_MOTION_DOT":-3.153e-5,"MEAN_MOTION_DDOT":0},{"OBJECT_NAME":"STARLINK-31769","OBJECT_ID":"2024-080S","EPOCH":"2025-11-07T20:11:23.230176","MEAN_MOTION":15.27579867,"ECCENTRICITY":0.00010324,"INCLINATION":43.0013,"RA_OF_ASC_NODE":6.3764,"ARG_OF_PERICENTER":289.2574,"MEAN_ANOMALY":70.8166,"EPHEMERIS_TYPE":0,"CLASSIFICATION_TYPE":"U","NORAD_CAT_ID":59617,"ELEMENT_SET_NO":999,"REV_AT_EPOCH":8589,"BSTAR":-4.5499475e-5,"MEAN_MOTION_DOT":-1.514e-5,"MEAN_MOTION_DDOT":0},{"OBJECT_NAME":"STARLINK-31784","OBJECT_ID":"2024-080T","EPOCH":"2025-11-07T10:43:54.190272","MEAN_MOTION":15.27570832,"ECCENTRICITY":9.737e-5,"INCLINATION":43.0021,"RA_OF_ASC_NODE":12.0406,"ARG_OF_PERICENTER":274.7981,"MEAN_ANOMALY":85.2759,"EPHEMERIS_TYPE":0,"CLASSIFICATION_TYPE":"U","NORAD_CAT_ID":59618,"ELEMENT_SET_NO":999,"REV_AT_EPOCH":8579,"BSTAR":-0.00026654071,"MEAN_MOTION_DOT":-7.587e-5,"MEAN_MOTION_DDOT":0},{"OBJECT_NAME":"STARLINK-31777","OBJECT_ID":"2024-080U","EPOCH":"2025-11-08T10:21:48.029760","MEAN_MOTION":15.27572346,"ECCENTRICITY":0.0001235,"INCLINATION":43.002,"RA_OF_ASC_NODE":6.5273,"ARG_OF_PERICENTER":257.6122,"MEAN_ANOMALY":102.4592,"EPHEMERIS_TYPE":0,"CLASSIFICATION_TYPE":"U","NORAD_CAT_ID":59619,"ELEMENT_SET_NO":999,"REV_AT_EPOCH":8594,"BSTAR":-9.034e-6,"MEAN_MOTION_DOT":-5.11e-6,"MEAN_MOTION_DDOT":0},{"OBJECT_NAME":"STARLINK-31771","OBJECT_ID":"2024-080V","EPOCH":"2025-11-08T12:00:00.998784","MEAN_MOTION":15.5626666,"ECCENTRICITY":0.002184,"INCLINATION":42.9913,"RA_OF_ASC_NODE":354.2897,"ARG_OF_PERICENTER":68.5427,"MEAN_ANOMALY":167.4854,"EPHEMERIS_TYPE":0,"CLASSIFICATION_TYPE":"U","NORAD_CAT_ID":59620,"ELEMENT_SET_NO":999,"REV_AT_EPOCH":594,"BSTAR":0.013218,"MEAN_MOTION_DOT":0.01057469,"MEAN_MOTION_DDOT":0},{"OBJECT_NAME":"STARLINK-31758","OBJECT_ID":"2024-080W","EPOCH":"2025-11-08T12:10:04.138176","MEAN_MOTION":15.27587326,"ECCENTRICITY":8.3e-5,"INCLINATION":43.0021,"RA_OF_ASC_NODE":358.4489,"ARG_OF_PERICENTER":251.3127,"MEAN_ANOMALY":108.7635,"EPHEMERIS_TYPE":0,"CLASSIFICATION_TYPE":"U","NORAD_CAT_ID":59621,"ELEMENT_SET_NO":999,"REV_AT_EPOCH":8604,"BSTAR":5.0559e-5,"MEAN_MOTION_DOT":1.13e-5,"MEAN_MOTION_DDOT":0},{"OBJECT_NAME":"STARLINK-31774","OBJECT_ID":"2024-080X","EPOCH":"2025-11-08T09:55:25.809024","MEAN_MOTION":15.27595841,"ECCENTRICITY":9.37e-5,"INCLINATION":43.003,"RA_OF_ASC_NODE":359.4739,"ARG_OF_PERICENTER":305.6641,"MEAN_ANOMALY":54.4123,"EPHEMERIS_TYPE":0,"CLASSIFICATION_TYPE":"U","NORAD_CAT_ID":59622,"ELEMENT_SET_NO":999,"REV_AT_EPOCH":8602,"BSTAR":0.0004099,"MEAN_MOTION_DOT":0.0001104,"MEAN_MOTION_DDOT":0},{"OBJECT_NAME":"STARLINK-31763","OBJECT_ID":"2024-080Y","EPOCH":"2025-11-08T10:24:20.232864","MEAN_MOTION":15.27594208,"ECCENTRICITY":9.4e-5,"INCLINATION":43.0029,"RA_OF_ASC_NODE":3.0843,"ARG_OF_PERICENTER":269.5589,"MEAN_ANOMALY":90.5155,"EPHEMERIS_TYPE":0,"CLASSIFICATION_TYPE":"U","NORAD_CAT_ID":59623,"ELEMENT_SET_NO":999,"REV_AT_EPOCH":8598,"BSTAR":0.0002999,"MEAN_MOTION_DOT":8.003e-5,"MEAN_MOTION_DDOT":0},{"OBJECT_NAME":"STARLINK-31749","OBJECT_ID":"2024-082A","EPOCH":"2025-11-07T19:04:58.448352","MEAN_MOTION":15.27588222,"ECCENTRICITY":9.301e-5,"INCLINATION":42.9999,"RA_OF_ASC_NODE":107.8727,"ARG_OF_PERICENTER":264.5607,"MEAN_ANOMALY":95.5138,"EPHEMERIS_TYPE":0,"CLASSIFICATION_TYPE":"U","NORAD_CAT_ID":59631,"ELEMENT_SET_NO":999,"REV_AT_EPOCH":8637,"BSTAR":-5.0988336e-5,"MEAN_MOTION_DOT":-1.665e-5,"MEAN_MOTION_DDOT":0},{"OBJECT_NAME":"STARLINK-31781","OBJECT_ID":"2024-082B","EPOCH":"2025-11-08T02:03:12.973248","MEAN_MOTION":15.27531594,"ECCENTRICITY":5.489e-5,"INCLINATION":43.0013,"RA_OF_ASC_NODE":92.4508,"ARG_OF_PERICENTER":278.6792,"MEAN_ANOMALY":81.3998,"EPHEMERIS_TYPE":0,"CLASSIFICATION_TYPE":"U","NORAD_CAT_ID":59632,"ELEMENT_SET_NO":999,"REV_AT_EPOCH":8641,"BSTAR":6.5599195e-5,"MEAN_MOTION_DOT":1.541e-5,"MEAN_MOTION_DDOT":0},{"OBJECT_NAME":"STARLINK-31541","OBJECT_ID":"2024-082C","EPOCH":"2025-11-08T03:11:57.214176","MEAN_MOTION":15.27570377,"ECCENTRICITY":0.00013956,"INCLINATION":43.0024,"RA_OF_ASC_NODE":99.1746,"ARG_OF_PERICENTER":265.0661,"MEAN_ANOMALY":95.0031,"EPHEMERIS_TYPE":0,"CLASSIFICATION_TYPE":"U","NORAD_CAT_ID":59633,"ELEMENT_SET_NO":999,"REV_AT_EPOCH":8649,"BSTAR":-1.7947278e-5,"MEAN_MOTION_DOT":-7.56e-6,"MEAN_MOTION_DDOT":0},{"OBJECT_NAME":"STARLINK-31797","OBJECT_ID":"2024-082D","EPOCH":"2025-11-08T03:23:30.623424","MEAN_MOTION":15.2757249,"ECCENTRICITY":0.00012646,"INCLINATION":43.0032,"RA_OF_ASC_NODE":106.1713,"ARG_OF_PERICENTER":272.1221,"MEAN_ANOMALY":87.9486,"EPHEMERIS_TYPE":0,"CLASSIFICATION_TYPE":"U","NORAD_CAT_ID":59634,"ELEMENT_SET_NO":999,"REV_AT_EPOCH":8626,"BSTAR":1.2579327e-5,"MEAN_MOTION_DOT":8.4e-7,"MEAN_MOTION_DDOT":0},{"OBJECT_NAME":"STARLINK-31798","OBJECT_ID":"2024-082E","EPOCH":"2025-11-08T12:00:33.264000","MEAN_MOTION":15.27570878,"ECCENTRICITY":0.0001249,"INCLINATION":43.0022,"RA_OF_ASC_NODE":104.5593,"ARG_OF_PERICENTER":264.5172,"MEAN_ANOMALY":95.5537,"EPHEMERIS_TYPE":0,"CLASSIFICATION_TYPE":"U","NORAD_CAT_ID":59635,"ELEMENT_SET_NO":999,"REV_AT_EPOCH":8627,"BSTAR":0.00017773,"MEAN_MOTION_DOT":4.63e-5,"MEAN_MOTION_DDOT":0},{"OBJECT_NAME":"STARLINK-31802","OBJECT_ID":"2024-082F","EPOCH":"2025-11-08T11:49:26.643072","MEAN_MOTION":15.27596778,"ECCENTRICITY":0.0001563,"INCLINATION":43.0036,"RA_OF_ASC_NODE":104.499,"ARG_OF_PERICENTER":251.9982,"MEAN_ANOMALY":108.0699,"EPHEMERIS_TYPE":0,"CLASSIFICATION_TYPE":"U","NORAD_CAT_ID":59636,"ELEMENT_SET_NO":999,"REV_AT_EPOCH":8627,"BSTAR":-0.00012842,"MEAN_MOTION_DOT":-3.796e-5,"MEAN_MOTION_DDOT":0},{"OBJECT_NAME":"STARLINK-31791","OBJECT_ID":"2024-082G","EPOCH":"2025-11-07T11:25:17.169888","MEAN_MOTION":15.27581075,"ECCENTRICITY":0.00010035,"INCLINATION":42.9999,"RA_OF_ASC_NODE":109.773,"ARG_OF_PERICENTER":276.3417,"MEAN_ANOMALY":83.732,"EPHEMERIS_TYPE":0,"CLASSIFICATION_TYPE":"U","NORAD_CAT_ID":59637,"ELEMENT_SET_NO":999,"REV_AT_EPOCH":8612,"BSTAR":3.2808886e-5,"MEAN_MOTION_DOT":6.41e-6,"MEAN_MOTION_DDOT":0},{"OBJECT_NAME":"STARLINK-31727","OBJECT_ID":"2024-082H","EPOCH":"2025-11-08T12:06:05.802048","MEAN_MOTION":15.27581775,"ECCENTRICITY":0.0001619,"INCLINATION":43.0019,"RA_OF_ASC_NODE":104.5865,"ARG_OF_PERICENTER":280.3701,"MEAN_ANOMALY":79.6968,"EPHEMERIS_TYPE":0,"CLASSIFICATION_TYPE":"U","NORAD_CAT_ID":59638,"ELEMENT_SET_NO":999,"REV_AT_EPOCH":8632,"BSTAR":4.789e-5,"MEAN_MOTION_DOT":1.056e-5,"MEAN_MOTION_DDOT":0}]
