STARLINK-31761          
1 59615U 24080Q   25312.50923021  .00007265  00000+0  27324-3 0  9995
2 59615  43.0048   2.7382 0001034 296.6892  63.3854 15.27583744 85995
STARLINK-31768          
1 59616U 24080R   25311.56171143 -.00003153  00000+0 -10510-3 0  9994
2 59616  43.0027   7.7229 0000916 287.9634  72.1117 15.27584360 85853
STARLINK-31769          
1 59617U 24080S   25311.84124109 -.00001514  00000+0 -45499-4 0  9990
2 59617  43.0013   6.3764 0001032 289.2574  70.8166 15.27579867 85895
STARLINK-31784          
1 59618U 24080T   25311.44715498 -.00007587  00000+0 -26654-3 0  9991
2 59618  43.0021  12.0406 0000973 274.7981  85.2759 15.27570832 85796
STARLINK-31777          
1 59619U 24080U   25312.43180590 -.00000511  00000+0 -90340-5 0  9996
2 59619  43.0020   6.5273 0001235 257.6122 102.4592 15.27572346 85941
STARLINK-31771          
1 59620U 24080V   25312.50001156  .01057469  00000+0  13218-1 0  9994
2 59620  42.9913 354.2897 0021840  68.5427 167.4854 15.56266660  5943
STARLINK-31758          
1 59621U 24080W   25312.50699234  .00001130  00000+0  50559-4 0  9990
2 59621  43.0021 358.4489 0000830 251.3127 108.7635 15.27587326 86042
STARLINK-31774          
1 59622U 24080X   25312.41349316  .00011040  00000+0  40990-3 0  9992
2 59622  43.0030 359.4739 0000937 305.6641  54.4123 15.27595841 86022
STARLINK-31763          
1 59623U 24080Y   25312.43356751  .00008003  00000+0  29990-3 0  9998
2 59623  43.0029   3.0843 0000940 269.5589  90.5155 15.27594208 85988
STARLINK-31749          
1 59631U 24082A   25311.79512093 -.00001665  00000+0 -50988-4 0  9991
2 59631  42.9999 107.8727 0000930 264.5607  95.5138 15.27588222 86379
STARLINK-31781          
1 59632U 24082B   25312.08556682  .00001541  00000+0  65599-4 0  9992
2 59632  43.0013  92.4508 0000548 278.6792  81.3998 15.27531594 86413
STARLINK-31541          
1 59633U 24082C   25312.13330109 -.00000756  00000+0 -17947-4 0  9996
2 59633  43.0024  99.1746 0001395 265.0661  95.0031 15.27570377 86490
STARLINK-31797          
1 59634U 24082D   25312.14132666  .00000084  00000+0  12579-4 0  9994
2 59634  43.0032 106.1713 0001264 272.1221  87.9486 15.27572490 86266
STARLINK-31798          
1 59635U 24082E   25312.50038500  .00004630  00000+0  17773-3 0  9998
2 59635  43.0022 104.5593 0001249 264.5172  95.5537 15.27570878 86278
STARLINK-31802          
1 59636U 24082F   25312.49266948 -.00003796  00000+0 -12842-3 0  9992
2 59636  43.0036 104.4990 0001563 251.9982 108.0699 15.27596778 86278
STARLINK-31791          
1 59637U 24082G   25311.47589317  .00000641  00000+0  32809-4 0  9998
2 59637  42.9999 109.7730 0001003 276.3417  83.7320 15.27581075 86126
STARLINK-31727          
1 59638U 24082H   25312.50423382  .00001056  00000+0  47890-4 0  9990
2 59638  43.0019 104.5865 0001619 280.3701  79.6968 15.27581775 86329
